{"type": "FeatureCollection", "features": [ {"type": "Feature", "properties": {"norad_id": 33917, "name": "COSMOS 2251 DEB", "group": "cosmos-2251-debris", "lat": 59.763846374661355, "lon": -109.39010935666809, "alt_km": 952.9025869643274, "timestamp": "2025-12-26T11:25:45.583743+00:00", "meta": {"OBJECT_NAME": "COSMOS 2251 DEB", "OBJECT_ID": "1993-036DW", "EPOCH": "2025-12-25T17:18:27.771264", "MEAN_MOTION": 13.6938971, "ECCENTRICITY": 0.03311389, "INCLINATION": 74.1073, "RA_OF_ASC_NODE": 101.1083, "ARG_OF_PERICENTER": 199.2418, "MEAN_ANOMALY": 159.5953, "EPHEMERIS_TYPE": 0, "CLASSIFICATION_TYPE": "U", "NORAD_CAT_ID": 33917, "ELEMENT_SET_NO": 999, "REV_AT_EPOCH": 83911, "BSTAR": 0.0010734281, "MEAN_MOTION_DOT": 1.349e-05, "MEAN_MOTION_DDOT": 0}, "tle": {"line1": "1 33917U 93036DW  25359.72115476  .00001349  00000+0  10734-2 0  9994", "line2": "2 33917  74.1073 101.1083 0331138 199.2418 159.5953 13.69389710839110"}}, "geometry": {"type": "Point", "coordinates": [-109.39010935666809, 59.763846374661355]}}, {"type": "Feature", "properties": {"norad_id": 33920, "name": "COSMOS 2251 DEB", "group": "cosmos-2251-debris", "lat": -71.62355137097397, "lon": -147.024611650296, "alt_km": 678.3790346699388, "timestamp": "2025-12-26T11:25:45.583752+00:00", "meta": {"OBJECT_NAME": "COSMOS 2251 DEB", "OBJECT_ID": "1993-036DZ", "EPOCH": "2025-12-25T19:20:05.558496", "MEAN_MOTION": 14.58472232, "ECCENTRICITY": 0.00376879, "INCLINATION": 74.061, "RA_OF_ASC_NODE": 273.5967, "ARG_OF_PERICENTER": 278.0618, "MEAN_ANOMALY": 81.6272, "EPHEMERIS_TYPE": 0, "CLASSIFICATION_TYPE": "U", "NORAD_CAT_ID": 33920, "ELEMENT_SET_NO": 999, "REV_AT_EPOCH": 88305, "BSTAR": 0.0016700668, "MEAN_MOTION_DOT": 7.807e-05, "MEAN_MOTION_DDOT": 0}, "tle": {"line1": "1 33920U 93036DZ  25359.80561989  .00007807  00000+0  16701-2 0  9996", "line2": "2 33920  74.0610 273.5967 0037687 278.0618  81.6272 14.58472232883057"}}, "geometry": {"type": "Point", "coordinates": [-147.024611650296, -71.62355137097397]}}, {"type": "Feature", "properties": {"norad_id": 33922, "name": "COSMOS 2251 DEB", "group": "cosmos-2251-debris", "lat": -15.183161253848093, "lon": 117.55516113138384, "alt_km": 737.9130692225326, "timestamp": "2025-12-26T11:25:45.583761+00:00", "meta": {"OBJECT_NAME": "COSMOS 2251 DEB", "OBJECT_ID": "1993-036EB", "EPOCH": "2025-12-25T19:31:12.971712", "MEAN_MOTION": 14.49555987, "ECCENTRICITY": 0.0023093, "INCLINATION": 74.0471, "RA_OF_ASC_NODE": 123.2498, "ARG_OF_PERICENTER": 232.4585, "MEAN_ANOMALY": 253.8509, "EPHEMERIS_TYPE": 0, "CLASSIFICATION_TYPE": "U", "NORAD_CAT_ID": 33922, "ELEMENT_SET_NO": 999, "REV_AT_EPOCH": 88767, "BSTAR": 0.00055201276, "MEAN_MOTION_DOT": 2.098e-05, "MEAN_MOTION_DDOT": 0}, "tle": {"line1": "1 33922U 93036EB  25359.81334458  .00002098  00000+0  55201-3 0  9994", "line2": "2 33922  74.0471 123.2498 0023093 232.4585 253.8509 14.49555987887674"}}, "geometry": {"type": "Point", "coordinates": [117.55516113138384, -15.183161253848093]}}, {"type": "Feature", "properties": {"norad_id": 33924, "name": "COSMOS 2251 DEB", "group": "cosmos-2251-debris", "lat": 49.21813591817198, "lon": -92.33526766889521, "alt_km": 1256.4597893167102, "timestamp": "2025-12-26T11:25:45.583770+00:00", "meta": {"OBJECT_NAME": "COSMOS 2251 DEB", "OBJECT_ID": "1993-036ED", "EPOCH": "2025-12-26T02:16:38.971200", "MEAN_MOTION": 13.5024041, "ECCENTRICITY": 0.0403775, "INCLINATION": 73.9129, "RA_OF_ASC_NODE": 248.7342, "ARG_OF_PERICENTER": 281.827, "MEAN_ANOMALY": 73.7826, "EPHEMERIS_TYPE": 0, "CLASSIFICATION_TYPE": "U", "NORAD_CAT_ID": 33924, "ELEMENT_SET_NO": 999, "REV_AT_EPOCH": 82919, "BSTAR": 0.0004136, "MEAN_MOTION_DOT": 4.14e-06, "MEAN_MOTION_DDOT": 0}, "tle": {"line1": "1 33924U 93036ED  25360.09489550  .00000414  00000+0  41360-3 0  9993", "line2": "2 33924  73.9129 248.7342 0403775 281.8270  73.7826 13.50240410829190"}}, "geometry": {"type": "Point", "coordinates": [-92.33526766889521, 49.21813591817198]}}, {"type": "Feature", "properties": {"norad_id": 33928, "name": "COSMOS 2251 DEB", "group": "cosmos-2251-debris", "lat": 72.86601233791035, "lon": 95.98067551809042, "alt_km": 752.4682094182499, "timestamp": "2025-12-26T11:25:45.583779+00:00", "meta": {"OBJECT_NAME": "COSMOS 2251 DEB", "OBJECT_ID": "1993-036EH", "EPOCH": "2025-12-26T02:44:57.437952", "MEAN_MOTION": 14.47429117, "ECCENTRICITY": 0.0062081, "INCLINATION": 73.9252, "RA_OF_ASC_NODE": 27.3827, "ARG_OF_PERICENTER": 318.8033, "MEAN_ANOMALY": 40.8447, "EPHEMERIS_TYPE": 0, "CLASSIFICATION_TYPE": "U", "NORAD_CAT_ID": 33928, "ELEMENT_SET_NO": 999, "REV_AT_EPOCH": 88838, "BSTAR": 0.00025718, "MEAN_MOTION_DOT": 9.37e-06, "MEAN_MOTION_DDOT": 0}, "tle": {"line1": "1 33928U 93036EH  25360.11455368  .00000937  00000+0  25718-3 0  9999", "line2": "2 33928  73.9252  27.3827 0062081 318.8033  40.8447 14.47429117888389"}}, "geometry": {"type": "Point", "coordinates": [95.98067551809042, 72.86601233791035]}}, {"type": "Feature", "properties": {"norad_id": 33932, "name": "COSMOS 2251 DEB", "group": "cosmos-2251-debris", "lat": 24.80124776548999, "lon": 102.98069394637257, "alt_km": 783.7639282151185, "timestamp": "2025-12-26T11:25:45.583788+00:00", "meta": {"OBJECT_NAME": "COSMOS 2251 DEB", "OBJECT_ID": "1993-036EM", "EPOCH": "2025-12-25T21:22:01.559712", "MEAN_MOTION": 14.38795551, "ECCENTRICITY": 0.0035993, "INCLINATION": 74.0343, "RA_OF_ASC_NODE": 291.6628, "ARG_OF_PERICENTER": 4.7374, "MEAN_ANOMALY": 355.4113, "EPHEMERIS_TYPE": 0, "CLASSIFICATION_TYPE": "U", "NORAD_CAT_ID": 33932, "ELEMENT_SET_NO": 999, "REV_AT_EPOCH": 88187, "BSTAR": 0.00047028, "MEAN_MOTION_DOT": 1.43e-05, "MEAN_MOTION_DDOT": 0}, "tle": {"line1": "1 33932U 93036EM  25359.89029583  .00001430  00000+0  47028-3 0  9990", "line2": "2 33932  74.0343 291.6628 0035993   4.7374 355.4113 14.38795551881873"}}, "geometry": {"type": "Point", "coordinates": [102.98069394637257, 24.80124776548999]}}, {"type": "Feature", "properties": {"norad_id": 33933, "name": "COSMOS 2251 DEB", "group": "cosmos-2251-debris", "lat": 70.10795316920091, "lon": 163.06919355496876, "alt_km": 749.2030526025728, "timestamp": "2025-12-26T11:25:45.583797+00:00", "meta": {"OBJECT_NAME": "COSMOS 2251 DEB", "OBJECT_ID": "1993-036EN", "EPOCH": "2025-12-26T02:35:10.951296", "MEAN_MOTION": 14.33508908, "ECCENTRICITY": 0.0071059, "INCLINATION": 74.0887, "RA_OF_ASC_NODE": 35.772, "ARG_OF_PERICENTER": 40.2085, "MEAN_ANOMALY": 320.4292, "EPHEMERIS_TYPE": 0, "CLASSIFICATION_TYPE": "U", "NORAD_CAT_ID": 33933, "ELEMENT_SET_NO": 999, "REV_AT_EPOCH": 87976, "BSTAR": 0.00026196, "MEAN_MOTION_DOT": 7.2e-06, "MEAN_MOTION_DDOT": 0}, "tle": {"line1": "1 33933U 93036EN  25360.10776564  .00000720  00000+0  26196-3 0  9999", "line2": "2 33933  74.0887  35.7720 0071059  40.2085 320.4292 14.33508908879762"}}, "geometry": {"type": "Point", "coordinates": [163.06919355496876, 70.10795316920091]}}, {"type": "Feature", "properties": {"norad_id": 33934, "name": "COSMOS 2251 DEB", "group": "cosmos-2251-debris", "lat": 43.56357362714037, "lon": 90.19507001838694, "alt_km": 701.0986542681649, "timestamp": "2025-12-26T11:25:45.583806+00:00", "meta": {"OBJECT_NAME": "COSMOS 2251 DEB", "OBJECT_ID": "1993-036EP", "EPOCH": "2025-12-25T15:28:29.335008", "MEAN_MOTION": 14.59210622, "ECCENTRICITY": 0.0015061, "INCLINATION": 74.0379, "RA_OF_ASC_NODE": 75.9826, "ARG_OF_PERICENTER": 199.4806, "MEAN_ANOMALY": 160.5785, "EPHEMERIS_TYPE": 0, "CLASSIFICATION_TYPE": "U", "NORAD_CAT_ID": 33934, "ELEMENT_SET_NO": 999, "REV_AT_EPOCH": 88927, "BSTAR": 0.00087963, "MEAN_MOTION_DOT": 4.129e-05, "MEAN_MOTION_DDOT": 0}, "tle": {"line1": "1 33934U 93036EP  25359.64478397  .00004129  00000+0  87963-3 0  9996", "line2": "2 33934  74.0379  75.9826 0015061 199.4806 160.5785 14.59210622889279"}}, "geometry": {"type": "Point", "coordinates": [90.19507001838694, 43.56357362714037]}}, {"type": "Feature", "properties": {"norad_id": 33936, "name": "COSMOS 2251 DEB", "group": "cosmos-2251-debris", "lat": 29.103207386361227, "lon": 20.408602679229503, "alt_km": 703.0728517740645, "timestamp": "2025-12-26T11:25:45.583816+00:00", "meta": {"OBJECT_NAME": "COSMOS 2251 DEB", "OBJECT_ID": "1993-036ER", "EPOCH": "2025-12-26T03:04:09.810048", "MEAN_MOTION": 14.60349671, "ECCENTRICITY": 0.0026636, "INCLINATION": 74.0181, "RA_OF_ASC_NODE": 11.8941, "ARG_OF_PERICENTER": 164.036, "MEAN_ANOMALY": 196.1652, "EPHEMERIS_TYPE": 0, "CLASSIFICATION_TYPE": "U", "NORAD_CAT_ID": 33936, "ELEMENT_SET_NO": 999, "REV_AT_EPOCH": 89085, "BSTAR": 0.0006189, "MEAN_MOTION_DOT": 2.979e-05, "MEAN_MOTION_DDOT": 0}, "tle": {"line1": "1 33936U 93036ER  25360.12789132  .00002979  00000+0  61890-3 0  9997", "line2": "2 33936  74.0181  11.8941 0026636 164.0360 196.1652 14.60349671890855"}}, "geometry": {"type": "Point", "coordinates": [20.408602679229503, 29.103207386361227]}}, {"type": "Feature", "properties": {"norad_id": 33938, "name": "COSMOS 2251 DEB", "group": "cosmos-2251-debris", "lat": -58.545249340272065, "lon": 153.643279195588, "alt_km": 732.9698941143997, "timestamp": "2025-12-26T11:25:45.583826+00:00", "meta": {"OBJECT_NAME": "COSMOS 2251 DEB", "OBJECT_ID": "1993-036ET", "EPOCH": "2025-12-25T22:59:46.505760", "MEAN_MOTION": 14.4683273, "ECCENTRICITY": 0.0016796, "INCLINATION": 74.0436, "RA_OF_ASC_NODE": 182.4964, "ARG_OF_PERICENTER": 263.6262, "MEAN_ANOMALY": 216.596, "EPHEMERIS_TYPE": 0, "CLASSIFICATION_TYPE": "U", "NORAD_CAT_ID": 33938, "ELEMENT_SET_NO": 999, "REV_AT_EPOCH": 88591, "BSTAR": 0.00043301, "MEAN_MOTION_DOT": 1.545e-05, "MEAN_MOTION_DDOT": 0}, "tle": {"line1": "1 33938U 93036ET  25359.95817715  .00001545  00000+0  43301-3 0  9992", "line2": "2 33938  74.0436 182.4964 0016796 263.6262 216.5960 14.46832730885910"}}, "geometry": {"type": "Point", "coordinates": [153.643279195588, -58.545249340272065]}}]}